start=new Date('2022-12-16T00:00:00.000Z').valueOf();
sats=[{"RCS_SIZE":"LARGE","MEAN_MOTION":"15.08839920","TLE_LINE1":"1 53748U 22107BA  22349.83871947 -.00000992  00000-0 -44187-4 0  9996","ECCENTRICITY":"0.00024180","LAUNCH_DATE":"2022-09-05","OBJECT_ID":"2022-107BA","MEAN_ANOMALY":"316.3338","CLASSIFICATION_TYPE":"U","TIME_SYSTEM":"UTC","PERIOD":"95.438","RA_OF_ASC_NODE":"160.8326","SITE":"AFETR","MEAN_MOTION_DDOT":"0.0000000000000","INCLINATION":"53.2166","PERIAPSIS":"538.073","MEAN_ELEMENT_THEORY":"SGP4","EPHEMERIS_TYPE":"0","ARG_OF_PERICENTER":"43.7846","REV_AT_EPOCH":"1647","MEAN_MOTION_DOT":"-0.00000992","FILE":"3702726","DECAY_DATE":null,"APOAPSIS":"541.418","ELEMENT_SET_NO":"999","SEMIMAJOR_AXIS":"6917.881","OBJECT_NAME":"STARLINK-4669","BSTAR":"-0.00004418700000","EPOCH":"2022-12-15T20:07:45.362208","COUNTRY_CODE":"US","CENTER_NAME":"EARTH","REF_FRAME":"TEME","NORAD_CAT_ID":"53748","OBJECT_TYPE":"PAYLOAD","TLE_LINE2":"2 53748  53.2166 160.8326 0002418  43.7846 316.3338 15.08839920 16475","GP_ID":"220530931"},{"RA_OF_ASC_NODE":"160.8151","PERIOD":"95.438","SITE":"AFETR","MEAN_MOTION_DDOT":"0.0000000000000","INCLINATION":"53.2175","MEAN_ELEMENT_THEORY":"SGP4","PERIAPSIS":"538.492","RCS_SIZE":"LARGE","MEAN_MOTION":"15.08829361","TLE_LINE1":"1 53749U 22107BB  22349.84240582  .00001072  00000-0  85493-4 0  9996","ECCENTRICITY":"0.00018590","LAUNCH_DATE":"2022-09-05","OBJECT_ID":"2022-107BB","MEAN_ANOMALY":"313.2581","CLASSIFICATION_TYPE":"U","TIME_SYSTEM":"UTC","COUNTRY_CODE":"US","CENTER_NAME":"EARTH","REF_FRAME":"TEME","NORAD_CAT_ID":"53749","OBJECT_TYPE":"PAYLOAD","TLE_LINE2":"2 53749  53.2175 160.8151 0001859  46.8566 313.2581 15.08829361 16477","GP_ID":"220531143","REV_AT_EPOCH":"1647","EPHEMERIS_TYPE":"0","ARG_OF_PERICENTER":"46.8566","MEAN_MOTION_DOT":"0.00001072","FILE":"3702726","APOAPSIS":"541.064","DECAY_DATE":null,"SEMIMAJOR_AXIS":"6917.913","ELEMENT_SET_NO":"999","BSTAR":"0.00008549300000","OBJECT_NAME":"STARLINK-4680","EPOCH":"2022-12-15T20:13:03.862848"},{"APOAPSIS":"540.930","DECAY_DATE":null,"FILE":"3702726","MEAN_MOTION_DOT":"0.00001729","REV_AT_EPOCH":"1648","EPHEMERIS_TYPE":"0","ARG_OF_PERICENTER":"62.9299","EPOCH":"2022-12-15T20:18:21.932352","BSTAR":"0.00012668000000","OBJECT_NAME":"STARLINK-4612","SEMIMAJOR_AXIS":"6917.862","ELEMENT_SET_NO":"999","NORAD_CAT_ID":"53750","REF_FRAME":"TEME","CENTER_NAME":"EARTH","COUNTRY_CODE":"US","TLE_LINE2":"2 53750  53.2161 160.8861 0001739  62.9299 297.1871 15.08845970 16488","GP_ID":"220531355","OBJECT_TYPE":"PAYLOAD","OBJECT_ID":"2022-107BC","TLE_LINE1":"1 53750U 22107BC  22349.84608718  .00001729  00000-0  12668-3 0  9999","LAUNCH_DATE":"2022-09-05","ECCENTRICITY":"0.00017390","MEAN_MOTION":"15.08845970","RCS_SIZE":"LARGE","TIME_SYSTEM":"UTC","CLASSIFICATION_TYPE":"U","MEAN_ANOMALY":"297.1871","SITE":"AFETR","MEAN_MOTION_DDOT":"0.0000000000000","RA_OF_ASC_NODE":"160.8861","PERIOD":"95.437","MEAN_ELEMENT_THEORY":"SGP4","PERIAPSIS":"538.524","INCLINATION":"53.2161"},{"COUNTRY_CODE":"US","CENTER_NAME":"EARTH","NORAD_CAT_ID":"53773","REF_FRAME":"TEME","TLE_LINE2":"2 53773  53.2174 180.7591 0001360  73.6256 286.4886 15.08840911 15723","GP_ID":"220530294","OBJECT_TYPE":"PAYLOAD","REV_AT_EPOCH":"1572","ARG_OF_PERICENTER":"73.6256","EPHEMERIS_TYPE":"0","APOAPSIS":"540.683","DECAY_DATE":null,"MEAN_MOTION_DOT":"0.00000179","FILE":"3702726","SEMIMAJOR_AXIS":"6917.878","ELEMENT_SET_NO":"999","EPOCH":"2022-12-15T19:12:04.829760","BSTAR":"0.00002931600000","OBJECT_NAME":"STARLINK-4718","RA_OF_ASC_NODE":"180.7591","PERIOD":"95.437","SITE":"AFETR","MEAN_MOTION_DDOT":"0.0000000000000","PERIAPSIS":"538.802","MEAN_ELEMENT_THEORY":"SGP4","INCLINATION":"53.2174","RCS_SIZE":"LARGE","MEAN_MOTION":"15.08840911","OBJECT_ID":"2022-111A","ECCENTRICITY":"0.00013600","TLE_LINE1":"1 53773U 22111A   22349.80005590  .00000179  00000-0  29316-4 0  9991","LAUNCH_DATE":"2022-09-11","CLASSIFICATION_TYPE":"U","MEAN_ANOMALY":"286.4886","TIME_SYSTEM":"UTC"},{"OBJECT_TYPE":"PAYLOAD","GP_ID":"220530507","TLE_LINE2":"2 53774  53.2156 180.7351 0001614  72.9119 287.2050 15.08841051 15582","REF_FRAME":"TEME","NORAD_CAT_ID":"53774","COUNTRY_CODE":"US","CENTER_NAME":"EARTH","OBJECT_NAME":"STARLINK-4719","BSTAR":"0.00004432500000","EPOCH":"2022-12-15T19:06:46.888128","ELEMENT_SET_NO":"999","SEMIMAJOR_AXIS":"6917.877","FILE":"3702726","MEAN_MOTION_DOT":"0.00000417","DECAY_DATE":null,"APOAPSIS":"540.859","ARG_OF_PERICENTER":"72.9119","EPHEMERIS_TYPE":"0","REV_AT_EPOCH":"1558","INCLINATION":"53.2156","MEAN_ELEMENT_THEORY":"SGP4","PERIAPSIS":"538.626","SITE":"AFETR","MEAN_MOTION_DDOT":"0.0000000000000","RA_OF_ASC_NODE":"180.7351","PERIOD":"95.437","TIME_SYSTEM":"UTC","MEAN_ANOMALY":"287.2050","CLASSIFICATION_TYPE":"U","TLE_LINE1":"1 53774U 22111B   22349.79637602  .00000417  00000-0  44325-4 0  9997","ECCENTRICITY":"0.00016140","LAUNCH_DATE":"2022-09-11","OBJECT_ID":"2022-111B","RCS_SIZE":"LARGE","MEAN_MOTION":"15.08841051"},{"RA_OF_ASC_NODE":"170.9593","PERIOD":"95.438","SITE":"AFETR","MEAN_MOTION_DDOT":"0.0000000000000","INCLINATION":"53.2164","PERIAPSIS":"539.009","MEAN_ELEMENT_THEORY":"SGP4","MEAN_MOTION":"15.08834372","RCS_SIZE":"LARGE","TLE_LINE1":"1 53775U 22111C   22349.82677275 -.00000783  00000-0 -31102-4 0  9999","LAUNCH_DATE":"2022-09-11","ECCENTRICITY":"0.00010900","OBJECT_ID":"2022-111C","MEAN_ANOMALY":"261.3850","CLASSIFICATION_TYPE":"U","TIME_SYSTEM":"UTC","COUNTRY_CODE":"US","CENTER_NAME":"EARTH","REF_FRAME":"TEME","NORAD_CAT_ID":"53775","OBJECT_TYPE":"PAYLOAD","TLE_LINE2":"2 53775  53.2164 170.9593 0001090  98.7266 261.3850 15.08834372 15576","GP_ID":"220531570","REV_AT_EPOCH":"1557","ARG_OF_PERICENTER":"98.7266","EPHEMERIS_TYPE":"0","MEAN_MOTION_DOT":"-0.00000783","FILE":"3702726","DECAY_DATE":null,"APOAPSIS":"540.517","SEMIMAJOR_AXIS":"6917.898","ELEMENT_SET_NO":"999","BSTAR":"-0.00003110200000","OBJECT_NAME":"STARLINK-4722","EPOCH":"2022-12-15T19:50:33.165600"},{"SEMIMAJOR_AXIS":"6917.890","ELEMENT_SET_NO":"999","BSTAR":"0.00009738300000","OBJECT_NAME":"STARLINK-4708","EPOCH":"2022-12-15T19:38:00.027168","REV_AT_EPOCH":"1578","ARG_OF_PERICENTER":"56.1892","EPHEMERIS_TYPE":"0","MEAN_MOTION_DOT":"0.00001262","FILE":"3702726","APOAPSIS":"541.121","DECAY_DATE":null,"OBJECT_TYPE":"PAYLOAD","TLE_LINE2":"2 53776  53.2185 175.8862 0001975  56.1892 303.9288 15.08836900 15788","GP_ID":"220531782","CENTER_NAME":"EARTH","COUNTRY_CODE":"US","REF_FRAME":"TEME","NORAD_CAT_ID":"53776","MEAN_ANOMALY":"303.9288","CLASSIFICATION_TYPE":"U","TIME_SYSTEM":"UTC","RCS_SIZE":"LARGE","MEAN_MOTION":"15.08836900","LAUNCH_DATE":"2022-09-11","TLE_LINE1":"1 53776U 22111D   22349.81805587  .00001262  00000-0  97383-4 0  9992","ECCENTRICITY":"0.00019750","OBJECT_ID":"2022-111D","INCLINATION":"53.2185","PERIAPSIS":"538.389","MEAN_ELEMENT_THEORY":"SGP4","RA_OF_ASC_NODE":"175.8862","PERIOD":"95.438","MEAN_MOTION_DDOT":"0.0000000000000","SITE":"AFETR"},{"MEAN_ANOMALY":"311.7487","CLASSIFICATION_TYPE":"U","TIME_SYSTEM":"UTC","MEAN_MOTION":"15.08840989","RCS_SIZE":"LARGE","LAUNCH_DATE":"2022-09-11","TLE_LINE1":"1 53777U 22111E   22349.81940023 -.00000190  00000-0  61527-5 0  9990","ECCENTRICITY":"0.00021230","OBJECT_ID":"2022-111E","INCLINATION":"53.2160","PERIAPSIS":"538.274","MEAN_ELEMENT_THEORY":"SGP4","RA_OF_ASC_NODE":"170.9124","PERIOD":"95.437","SITE":"AFETR","MEAN_MOTION_DDOT":"0.0000000000000","SEMIMAJOR_AXIS":"6917.877","ELEMENT_SET_NO":"999","BSTAR":"0.00000615270000","OBJECT_NAME":"STARLINK-4664","EPOCH":"2022-12-15T19:39:56.179872","REV_AT_EPOCH":"1557","ARG_OF_PERICENTER":"48.3687","EPHEMERIS_TYPE":"0","FILE":"3702726","MEAN_MOTION_DOT":"-0.00000190","DECAY_DATE":null,"APOAPSIS":"541.211","OBJECT_TYPE":"PAYLOAD","TLE_LINE2":"2 53777  53.2160 170.9124 0002123  48.3687 311.7487 15.08840989 15577","GP_ID":"220530721","CENTER_NAME":"EARTH","COUNTRY_CODE":"US","REF_FRAME":"TEME","NORAD_CAT_ID":"53777"},{"TIME_SYSTEM":"UTC","CLASSIFICATION_TYPE":"U","MEAN_ANOMALY":"311.9615","OBJECT_ID":"2022-111F","TLE_LINE1":"1 53778U 22111F   22349.78488573  .00001080  00000-0  85969-4 0  9997","ECCENTRICITY":"0.00021830","LAUNCH_DATE":"2022-09-11","MEAN_MOTION":"15.08844927","RCS_SIZE":"LARGE","PERIAPSIS":"538.220","MEAN_ELEMENT_THEORY":"SGP4","INCLINATION":"53.2167","SITE":"AFETR","MEAN_MOTION_DDOT":"0.0000000000000","RA_OF_ASC_NODE":"175.6856","PERIOD":"95.437","EPOCH":"2022-12-15T18:50:14.127072","BSTAR":"0.00008596900000","OBJECT_NAME":"STARLINK-4709","SEMIMAJOR_AXIS":"6917.865","ELEMENT_SET_NO":"999","DECAY_DATE":null,"APOAPSIS":"541.240","MEAN_MOTION_DOT":"0.00001080","FILE":"3702726","REV_AT_EPOCH":"1550","ARG_OF_PERICENTER":"48.1563","EPHEMERIS_TYPE":"0","GP_ID":"220530934","TLE_LINE2":"2 53778  53.2167 175.6856 0002183  48.1563 311.9615 15.08844927 15500","OBJECT_TYPE":"PAYLOAD","NORAD_CAT_ID":"53778","REF_FRAME":"TEME","CENTER_NAME":"EARTH","COUNTRY_CODE":"US"},{"SEMIMAJOR_AXIS":"6917.897","ELEMENT_SET_NO":"999","EPOCH":"2022-12-15T19:34:38.529408","BSTAR":"-0.00002777200000","OBJECT_NAME":"STARLINK-4706","REV_AT_EPOCH":"1557","EPHEMERIS_TYPE":"0","ARG_OF_PERICENTER":"56.7789","DECAY_DATE":null,"APOAPSIS":"541.124","MEAN_MOTION_DOT":"-0.00000730","FILE":"3702726","GP_ID":"220531146","TLE_LINE2":"2 53779  53.2185 170.8936 0001968  56.7789 303.3392 15.08834495 15575","OBJECT_TYPE":"PAYLOAD","COUNTRY_CODE":"US","CENTER_NAME":"EARTH","NORAD_CAT_ID":"53779","REF_FRAME":"TEME","CLASSIFICATION_TYPE":"U","MEAN_ANOMALY":"303.3392","TIME_SYSTEM":"UTC","RCS_SIZE":"LARGE","MEAN_MOTION":"15.08834495","OBJECT_ID":"2022-111G","TLE_LINE1":"1 53779U 22111G   22349.81572372 -.00000730  00000-0 -27772-4 0  9994","ECCENTRICITY":"0.00019680","LAUNCH_DATE":"2022-09-11","PERIAPSIS":"538.401","MEAN_ELEMENT_THEORY":"SGP4","INCLINATION":"53.2185","PERIOD":"95.438","RA_OF_ASC_NODE":"170.8936","MEAN_MOTION_DDOT":"0.0000000000000","SITE":"AFETR"}];
